CUTE-1 (CO-55)          
1 27844U 03031E   26167.26444772  .00000236  00000+0  12107-3 0  9994
2 27844  98.6736 175.8349 0009468 180.6624 179.4544 14.24335232191540
CUBESAT XI-IV (CO-57)   
1 27848U 03031J   26167.53357567  .00000197  00000+0  10539-3 0  9996
2 27848  98.6766 175.8138 0008978 199.0194 161.0650 14.23620520191286
CUBESAT XI-V            
1 28895U 05043F   26167.38340975  .00001200  00000+0  19649-3 0  9999
2 28895  98.2985 322.9884 0013585 203.3717 156.6874 14.72629782101632
CUTE-1.7+APD II (CO-65) 
1 32785U 08021C   26167.58586699  .00003637  00000+0  23127-3 0  9990
2 32785  97.8272 148.9918 0009841  40.9477 319.2489 15.09446364985106
CANX-2                  
1 32790U 08021H   26167.42426895  .00003996  00000+0  28118-3 0  9993
2 32790  97.8634 147.1868 0011441  52.6900 307.5367 15.05613108984695
SEEDS II (CO-66)        
1 32791U 08021J   26166.96044239  .00015094  00000+0  47997-3 0  9998
2 32791  97.7511 164.7995 0001225   8.5431 351.5831 15.32715926987108
SWISSCUBE               
1 35932U 09051B   26167.55290445  .00000809  00000+0  16935-3 0  9996
2 35932  98.4037  75.4301 0005920 205.2603 154.8309 14.62480577889064
BEESAT-1                
1 35933U 09051C   26167.28819711  .00000696  00000+0  14946-3 0  9994
2 35933  98.3965  74.7982 0004173 220.4264 139.6627 14.61719271889050
ITUPSAT1                
1 35935U 09051E   26167.55235184  .00000625  00000+0  13915-3 0  9999
2 35935  98.4049  74.2590 0006236 236.3004 123.7602 14.60439879888649
TISAT 1                 
1 36799U 10035E   26167.59447421  .00016569  00000+0  54375-3 0  9994
2 36799  98.0714 114.0908 0001321 168.3617 191.7653 15.31688582867614
AEROCUBE 4.5A           
1 38767U 12048K   26166.97135025  .00410252  74313-4  10174-2 0  9990
2 38767  64.6243  31.3351 0019594 223.4007 136.5613 15.95272059372462
STRAND-1                
1 39090U 13009E   26167.56865568  .00000207  00000+0  84083-4 0  9990
2 39090  98.3921 347.8182 0007698 227.4338 132.6200 14.37162942696977
BRITE-AUSTRIA           
1 39091U 13009F   26167.44196029  .00000141  00000+0  62460-4 0  9999
2 39091  98.3994 346.8961 0009125 239.0066 121.0225 14.36541877696949
NEE-01 PEGASO           
1 39151U 13018B   26167.39472627  .00002186  00000+0  21240-3 0  9992
2 39151  98.1216 311.5180 0013012 161.8951 198.2733 14.93656509710587
POPACS 2                
1 39269U 13055E   26166.36468816  .00010853  00000+0  18376-3 0  9990
2 39269  80.9902 146.2784 0416885 199.6373 158.8380 14.91171919662944
POPACS 3                
1 39270U 13055F   26166.47030025  .00008012  00000+0  18804-3 0  9991
2 39270  81.0017 231.0485 0552307  75.2193 290.9504 14.56095763638307
ZACUBE-1 (TSHEPISOSAT)  
1 39417U 13066B   26167.60742097  .00002510  00000+0  19730-3 0  9997
2 39417  97.8081 129.9413 0040740 249.6974 109.9870 15.01186029680645
WNISAT-1                
1 39423U 13066H   26167.38758408  .00000731  00000+0  14188-3 0  9997
2 39423  97.7200 316.6006 0161931 234.1292 124.4781 14.58061076666614
TRITON-1                
1 39427U 13066M   26167.62030944  .00000843  00000+0  10704-3 0  9990
2 39427  97.8254  77.4407 0088485 235.8044 123.4759 14.81702007674008
GOMX-1                  
1 39430U 13066Q   26167.50503279  .00001551  00000+0  23738-3 0  9995
2 39430  97.6477   8.0110 0130180  79.7035 281.8819 14.69458240669815
CUBEBUG-2 (LO-74)       
1 39440U 13066AA  26167.59428339  .00003852  00000+0  35723-3 0  9991
2 39440  97.8908 116.5698 0058425  30.9918 329.4727 14.93757220676905
NEE-02 KRYSAOR          
1 39441U 13066AB  26166.52650133  .00002075  00000+0  23065-3 0  9995
2 39441  97.8896 105.7532 0067689  75.5443 285.3271 14.86612031675959
FUNCUBE-1 (AO-73)       
1 39444U 13066AE  26167.45994049  .00005650  00000+0  35176-3 0  9996
2 39444  97.8275 138.8906 0035581 203.4552 156.5055 15.09483494679558
UWE-3                   
1 39446U 13066AG  26167.41356749  .00003778  00000+0  32608-3 0  9999
2 39446  97.8696 123.4820 0047700 323.7124  36.0865 14.97020137677465
BRITE-CA1 (TORONTO)     
1 40020U 14033L   26167.35833890  .00000605  00000+0  98796-4 0  9991
2 40020  97.9738 296.3015 0077228 279.7207  79.5284 14.72675728642092
DUCHIFAT-1              
1 40021U 14033M   26166.42257015  .00087303  00000+0  90897-3 0  9991
2 40021  98.0462 225.3358 0003280 119.3803 240.7782 15.64281009655477
NANOSATC-BR1            
1 40024U 14033Q   26167.02931394  .00014660  00000+0  48537-3 0  9990
2 40024  98.0716 199.3145 0004305 165.7271 194.4091 15.31427281653800
QB50P1                  
1 40025U 14033R   26167.55691678  .00006273  00000+0  30978-3 0  9998
2 40025  98.0959 178.6589 0007736 217.5219 142.5474 15.18252996652937
QB50P2                  
1 40032U 14033Y   26167.57176880  .00005101  00000+0  27579-3 0  9993
2 40032  98.0746 164.4136 0007953 164.9395 195.2074 15.15151501652579
PERSEUS-M2              
1 40037U 14033AD  26167.59477780  .00001160  00000+0  11015-3 0  9992
2 40037  97.9959 118.1235 0010778 305.9989  54.0231 14.95506490650695
